ZHONGXING-10            
1 37677U 11026A   25078.59580296 -.00000345  00000+0  00000+0 0  9997
2 37677   0.0606 269.3862 0001384 241.4515 351.4811  1.00268617 50445
SES-3                   
1 37748U 11035A   25078.49670197 -.00000094  00000+0  00000+0 0  9996
2 37748   0.1482  85.1522 0003082 283.4356 244.5014  1.00272307 50033
KAZSAT-2                
1 37749U 11035B   25078.48683993 -.00000191  00000+0  00000+0 0  9992
2 37749   0.0079 186.0138 0001759 250.9512   2.0974  1.00270395 48833
BEIDOU-2 IGSO-4         
1 37763U 11038A   25072.96254655 -.00000098  00000+0  00000+0 0  9993
2 37763  54.5716 169.7887 0136297 229.5410 211.0488  1.00252333 50023
ASTRA 1N                
1 37775U 11041A   25078.33058690  .00000127  00000+0  00000+0 0  9990
2 37775   0.0768  43.3507 0005447 341.4488 290.5039  1.00271961 39968
BSAT-3C (JCSAT-110R)    
1 37776U 11041B   25078.59646793 -.00000344  00000+0  00000+0 0  9998
2 37776   0.0332 282.5480 0000349 181.5577  37.9523  1.00270659 45928
PAKSAT-1R               
1 37779U 11042A   25078.27271685  .00000161  00000+0  00000+0 0  9997
2 37779   0.0172 125.1922 0003312 285.9733 262.0851  1.00268128 49918
SES-2                   
1 37809U 11049A   25078.38097750 -.00000188  00000+0  00000+0 0  9999
2 37809   0.0331  69.4079 0002761 301.4202 216.4832  1.00272220 49408
ARABSAT-5C              
1 37810U 11049B   25078.33076066  .00000131  00000+0  00000+0 0  9990
2 37810   0.0550 357.1568 0001217 357.8926 321.1578  1.00274395 49479
EUTELSAT 7 WEST A       
1 37816U 11051A   25078.36299370 -.00000053  00000+0  00000+0 0  9991
2 37816   0.0633 352.4342 0001744 217.1339  90.9637  1.00272859 49331
QUETZSAT 1              
1 37826U 11054A   25078.39979889 -.00000234  00000+0  00000+0 0  9999
2 37826   0.0086 197.1815 0002665 185.1079 221.8366  1.00270224 45313
INTELSAT 18 (IS-18)     
1 37834U 11056A   25078.47469119  .00000060  00000+0  00000+0 0  9995
2 37834   0.0190 157.2406 0002003 220.3986 150.5012  1.00272176 49257
EUTELSAT 16A            
1 37836U 11057A   25078.32997874  .00000111  00000+0  00000+0 0  9993
2 37836   0.0694 349.7091 0005296  11.1652 311.0237  1.00273621  2763
VIASAT-1                
1 37843U 11059A   25078.48715378 -.00000016  00000+0  00000+0 0  9992
2 37843   0.0173 204.2690 0002137 168.1394 225.1089  1.00273768 42766
ASIASAT 7               
1 37933U 11069A   25078.63971738 -.00000327  00000+0  00000+0 0  9999
2 37933   0.0296 225.1003 0001478 105.4709 182.6514  1.00273523 40300
BEIDOU-2 IGSO-5         
1 37948U 11073A   25078.63964509 -.00000121  00000+0  00000+0 0  9990
2 37948  48.5078 277.1448 0101128 219.6099   7.1077  1.00269520 48578
LUCH-5A                 
1 37951U 11074B   25078.52204001 -.00000041  00000+0  00000+0 0  9998
2 37951   7.5922  80.6315 0002487 271.3014 180.1821  1.00273274 48496
NIGCOMSAT 1R            
1 38014U 11077A   25078.26377590  .00000152  00000+0  00000+0 0  9999
2 38014   0.0451 320.9704 0000565  53.5417 299.9802  1.00269742 48398
WGS F4 (USA 233)        
1 38070U 12003A   25078.48710057 -.00000208  00000+0  00000+0 0  9997
2 38070   0.0141 162.1339 0000393 236.1734  42.7066  1.00271565 39589
SES-4                   
1 38087U 12007A   25078.37410541 -.00000161  00000+0  00000+0 0  9990
2 38087   0.0339  71.0160 0002402 285.3441 293.4593  1.00272049 47666
BEIDOU-2 G5             
1 38091U 12008A   25078.40990868  .00000064  00000+0  00000+0 0  9996
2 38091   2.4387  71.2355 0012849 254.2357  58.0184  1.00275051 47808
MUOS-1                  
1 38093U 12009A   25078.49943234 -.00000118  00000+0  00000+0 0  9994
2 38093   4.5637  46.4918 0057274 357.2902 213.3035  1.00273065 47883
INTELSAT 22 (IS-22)     
1 38098U 12011A   25078.41251508 -.00000053  00000+0  00000+0 0  9998
2 38098   0.0209 233.7733 0001643 134.9590  29.0822  1.00275748  2621
APSTAR-7                
1 38107U 12013A   25078.48484168 -.00000094  00000+0  00000+0 0  9993
2 38107   0.0095 170.6995 0003005 218.7685  38.8339  1.00271580 47242
YAHSAT 1B               
1 38245U 12016A   25078.26473159  .00000133  00000+0  00000+0 0  9996
2 38245   0.0916  92.9926 0003240 273.1298 313.8075  1.00271079 41030
AEHF-2 (USA 235)        
1 38254U 12019A   25078.32346271 -.00000127  00000+0  00000+0 0  9994
2 38254   5.5955  60.4360 0002636 298.0478 278.5381  1.00270330  2425
JCSAT-13                
1 38331U 12023A   25078.49413558 -.00000349  00000+0  00000+0 0  9992
2 38331   0.0174 240.4328 0002241 144.3311  94.4015  1.00273485 46981
VINASAT-2               
1 38332U 12023B   25078.49578630 -.00000322  00000+0  00000+0 0  9997
2 38332   0.0341 312.4546 0002671  67.1324 108.0073  1.00271340 42107
NIMIQ 6                 
1 38342U 12026A   25078.38010869 -.00000166  00000+0  00000+0 0  9990
2 38342   0.0150 231.8003 0003014 131.1142 219.9760  1.00272844 45850
ZHONGXING-2A            
1 38352U 12028A   25078.48909652 -.00000285  00000+0  00000+0 0  9993
2 38352   0.2749  92.3216 0001550 297.4778  61.7650  1.00269369 46734
INTELSAT 19 (IS-19)     
1 38356U 12030A   25078.52047475 -.00000050  00000+0  00000+0 0  9991
2 38356   0.0179 169.5303 0002989 199.2950 161.8478  1.00270833 45888
ECHOSTAR 17             
1 38551U 12035A   25078.49433788 -.00000068  00000+0  00000+0 0  9994
2 38551   0.0203 165.3054 0001727 193.1693 249.6702  1.00269700 46502
METEOSAT-10 (MSG-3)     
1 38552U 12035B   25078.32685104  .00000003  00000+0  00000+0 0  9996
2 38552   3.5960  62.0261 0001531 268.2907 324.5336  1.00275803 46292
SES-5                   
1 38652U 12036A   25078.32780672  .00000041  00000+0  00000+0 0  9996
2 38652   0.0564 310.9719 0002003  50.6138 298.5139  1.00272352 39910
INTELSAT 20 (IS-20)     
1 38740U 12043A   25078.48319095 -.00000017  00000+0  00000+0 0  9990
2 38740   0.0147 162.0061 0002604  24.1088 233.5832  1.00271865 46182
HYLAS 2                 
1 38741U 12043B   25078.40535619 -.00000251  00000+0  00000+0 0  9995
2 38741   1.2487  86.7370 0001184 242.4736 281.4274  1.00275764 46291
INTELSAT 21 (IS-21)     
1 38749U 12045A   25078.39077084 -.00000277  00000+0  00000+0 0  9998
2 38749   0.0123 233.5025 0001771 141.6593 244.6859  1.00271017 45965
ASTRA 2F                
1 38778U 12051A   25078.26099573  .00000157  00000+0  00000+0 0  9996
2 38778   0.0804 256.8584 0001658  20.0703  22.2518  1.00272704 36571
GSAT-10                 
1 38779U 12051B   25078.48614488 -.00000158  00000+0  00000+0 0  9991
2 38779   0.0578 265.6042 0005504 176.5435 353.1353  1.00272419 45532
INTELSAT 23 (IS-23)     
1 38867U 12057A   25078.38766729 -.00000277  00000+0  00000+0 0  9992
2 38867   0.0269 217.7660 0000537  72.9815 333.0016  1.00277412 45398
BEIDOU-2 G6             
1 38953U 12059A   25078.48631865 -.00000168  00000+0  00000+0 0  9992
2 38953   3.2625  78.1621 0010452 302.8877  55.3183  1.00273741 45346
LUCH-5B                 
1 38977U 12061A   25078.25213392 -.00000128  00000+0  00000+0 0  9993
2 38977   9.4935  54.2234 0001816 210.4028 346.8527  1.00273239 45044
YAMAL 300K              
1 38978U 12061B   25078.38296978  .00000078  00000+0  00000+0 0  9992
2 38978   0.0184 155.4512 0000431 175.3228 167.2061  1.00270741 45070
STAR ONE C3             
1 38991U 12062A   25078.39979889 -.00000242  00000+0  00000+0 0  9992
2 38991   0.0249 265.1085 0002151 109.5708 231.4321  1.00273091 45191
EUTELSAT 21B            
1 38992U 12062B   25078.33093442  .00000137  00000+0  00000+0 0  9991
2 38992   0.0700 350.1751 0002790  10.5902 317.0844  1.00274368 45262
ECHOSTAR 16             
1 39008U 12065A   25078.39077084 -.00000274  00000+0  00000+0 0  9996
2 39008   0.0186 155.8288 0002194 201.3351 259.1768  1.00271244 45069
ZHONGXING-12            
1 39017U 12067A   25078.48701369 -.00000200  00000+0  00000+0 0  9997
2 39017   0.0097 173.8615 0002972 191.0800  75.1465  1.00271348 44943
EUTELSAT 70B            
1 39020U 12069A   25078.48362536 -.00000037  00000+0  00000+0 0  9990
2 39020   0.0657 351.2817 0001535 328.6761 101.8978  1.00273086 44940
YAMAL 402               
1 39022U 12070A   25078.26160550  .00000093  00000+0  00000+0 0  9993
2 39022   0.0941  95.4791 0004110 260.9747 329.6677  1.00273242 44838
SKYNET 5D               
1 39034U 12075A   25078.59956757  .00000106  00000+0  00000+0 0  9994
2 39034   0.0685 346.2468 0003748  15.2368  84.4790  1.00275377 44608
MEXSAT 3                
1 39035U 12075B   25078.48715446 -.00000018  00000+0  00000+0 0  9994
2 39035   0.0263 245.6029 0002259 115.9531 236.2795  1.00272377  2492
TDRS 11                 
1 39070U 13004A   25078.41488170  .00000086  00000+0  00000+0 0  9994
2 39070   2.9467  20.7777 0004348   8.0041 123.4125  1.00267941 42139
AMAZONAS 3              
1 39078U 13006A   25078.39077084 -.00000275  00000+0  00000+0 0  9990
2 39078   0.0368 230.2569 0002059 113.0141 273.5784  1.00271061 40356
AZERSPACE 1             
1 39079U 13006B   25078.26447095  .00000140  00000+0  00000+0 0  9990
2 39079   0.0181 214.3532 0002152 187.7592 276.1385  1.00273567 44246
SBIRS GEO-2 (USA 241)   
1 39120U 13011A   25078.38521668 -.00000278  00000+0  00000+0 0  9998
2 39120   3.5236  50.6499 0002121 304.7632 270.6233  1.00271475 43973
EUTELSAT 117 WEST A     
1 39122U 13012A   25078.48611152 -.00000006  00000+0  00000+0 0  9999
2 39122   0.0072 154.6194 0002995 217.6273 223.2240  1.00273253 43871
ANIK G1                 
1 39127U 13014A   25078.49333889 -.00000067  00000+0  00000+0 0  9992
2 39127   0.0192 193.4413 0002564 146.1163 268.0113  1.00272482 43699
ZHONGXING-11            
1 39157U 13020A   25078.48909652 -.00000284  00000+0  00000+0 0  9999
2 39157   0.0140 109.4844 0005623 213.2504 128.5109  1.00273218 43338
EUTELSAT 7B             
1 39163U 13022A   25078.32815425  .00000055  00000+0  00000+0 0  9990
2 39163   0.0663 358.4078 0006273   4.6060 299.2137  1.00272479 43392
